NORAD_CAT_ID,OBJECT_NAME,OBJECT_TYPE,EPOCH,MEAN_MOTION,ECCENTRICITY,INCLINATION,RA_OF_ASC_NODE,ARG_OF_PERICENTER,MEAN_ANOMALY,BSTAR,MEAN_MOTION_DOT,MEAN_MOTION_DDOT,TLE_LINE0,TLE_LINE1,TLE_LINE2,SEMIMAJOR_AXIS,PERIOD,APOGEE,PERIGEE,DECAYED
53573.0,STARLINK-4547,PAYLOAD,2023-02-06 18:54:00,15.0884451,0.0001514,53.2186,72.8089,106.9595,253.1563,-2.4139e-05,-6.72e-06,0.0,0 STARLINK-4547,1 53573U 22101AY  23037.78750514 -.00000672  00000-0 -24139-4 0  9991,2 53573  53.2186  72.8089 0001514 106.9595 253.1563 15.08844510 26324,6917.867,95.437,540.779,538.684,0.0
53573.0,STARLINK-4547,PAYLOAD,2023-02-07 09:12:28,15.08846433,0.0001461,53.2184,70.1328,105.0631,255.0522,0.00016606,2.356e-05,0.0,0 STARLINK-4547,1 53573U 22101AY  23038.38365868  .00002356  00000-0  16606-3 0  9990,2 53573  53.2184  70.1328 0001461 105.0631 255.0522 15.08846433 26413,6917.861,95.437,540.736,538.715,0.0
53573.0,STARLINK-4547,PAYLOAD,2023-02-08 10:38:38,15.08851056,0.0001627,53.2188,65.3731,121.9071,238.2079,-0.00013538,-2.443e-05,0.0,0 STARLINK-4547,1 53573U 22101AY  23039.44350357 -.00002443  00000-0 -13538-3 0  9995,2 53573  53.2188  65.3731 0001627 121.9071 238.2079 15.08851056 26574,6917.847,95.437,540.837,538.586,0.0
53573.0,STARLINK-4547,PAYLOAD,2023-02-09 05:43:16,15.08837487,0.000146,53.2198,61.8039,121.9151,238.1983,4.0055e-05,3.5e-06,0.0,0 STARLINK-4547,1 53573U 22101AY  23040.23838903  .00000350  00000-0  40055-4 0  9990,2 53573  53.2198  61.8039 0001460 121.9151 238.1983 15.08837487 26699,6917.888,95.438,540.763,538.743,0.0
53573.0,STARLINK-4547,PAYLOAD,2023-02-09 08:54:02,15.08840595,0.0002348,53.2198,61.2087,139.4942,220.6225,3.4914e-05,2.67e-06,0.0,0 STARLINK-4547,1 53573U 22101AY  23040.37086631  .00000267  00000-0  34914-4 0  9992,2 53573  53.2198  61.2087 0002348 139.4942 220.6225 15.08840595 26716,6917.879,95.438,541.368,538.119,0.0
53573.0,STARLINK-4547,PAYLOAD,2023-02-09 18:26:21,15.08845804,0.0001289,53.2198,59.4247,105.5614,254.552,-2.5989e-05,-7.02e-06,0.0,0 STARLINK-4547,1 53573U 22101AY  23040.76830579 -.00000702  00000-0 -25989-4 0  9991,2 53573  53.2198  59.4247 0001289 105.5614 254.5520 15.08845804 26774,6917.863,95.437,540.619,538.836,0.0
53573.0,STARLINK-4547,PAYLOAD,2023-02-10 00:47:54,15.08834561,0.000123,53.2188,58.2396,104.9548,255.1581,8.039e-05,9.92e-06,0.0,0 STARLINK-4547,1 53573U 22101AY  23041.03327120  .00000992  00000-0  80390-4 0  9991,2 53573  53.2188  58.2396 0001230 104.9548 255.1581 15.08834561 26817,6917.897,95.438,540.613,538.911,0.0
53573.0,STARLINK-4547,PAYLOAD,2023-02-10 07:09:27,15.08837248,0.0001385,53.2188,57.0509,120.0627,240.0503,0.00010141,1.326e-05,0.0,0 STARLINK-4547,1 53573U 22101AY  23041.29822969  .00001326  00000-0  10141-3 0  9998,2 53573  53.2188  57.0509 0001385 120.0627 240.0503 15.08837248 26854,6917.889,95.438,540.712,538.796,0.0
53573.0,STARLINK-4547,PAYLOAD,2023-02-11 05:24:50,15.08852375,0.000142,53.2193,52.8881,88.9191,271.1964,-0.00010616,-1.978e-05,0.0,0 STARLINK-4547,1 53573U 22101AY  23042.22558867 -.00001978  00000-0 -10616-3 0  9997,2 53573  53.2193  52.8881 0001420  88.9191 271.1964 15.08852375 26993,6917.843,95.437,540.69,538.725,0.0
53573.0,STARLINK-4547,PAYLOAD,2023-02-11 18:07:56,15.08840861,0.0001331,53.2195,50.5056,80.7666,279.3477,6.005e-05,6.68e-06,0.0,0 STARLINK-4547,1 53573U 22101AY  23042.75551103  .00000668  00000-0  60050-4 0  9992,2 53573  53.2195  50.5056 0001331  80.7666 279.3477 15.08840861 27078,6917.878,95.438,540.664,538.822,0.0
53573.0,STARLINK-4547,PAYLOAD,2023-02-12 10:01:47,15.0884349,0.0001254,53.2172,47.531,95.9147,264.1988,2.311e-05,8e-07,0.0,0 STARLINK-4547,1 53573U 22101AY  23043.41791072  .00000080  00000-0  23110-4 0  9991,2 53573  53.2172  47.5310 0001254  95.9147 264.1988 15.08843490 27179,6917.87,95.437,540.602,538.867,0.0
53573.0,STARLINK-4547,PAYLOAD,2023-02-13 00:20:16,15.08830658,0.0001146,53.2186,44.8537,99.3338,260.7784,7.1056e-07,-2.76e-06,0.0,0 STARLINK-4547,1 53573U 22101AY  23044.01408061 -.00000276  00000-0  71056-6 0  9993,2 53573  53.2186  44.8537 0001146  99.3338 260.7784 15.08830658 27263,6917.909,95.438,540.567,538.981,0.0
53573.0,STARLINK-4547,PAYLOAD,2023-02-13 09:52:34,15.08840681,0.0001431,53.2175,43.0697,98.072,262.0434,8.058e-05,9.95e-06,0.0,0 STARLINK-4547,1 53573U 22101AY  23044.41151362  .00000995  00000-0  80580-4 0  9993,2 53573  53.2175  43.0697 0001431  98.0720 262.0434 15.08840681 27328,6917.878,95.438,540.733,538.753,0.0
53573.0,STARLINK-4547,PAYLOAD,2023-02-14 00:11:03,15.08831383,0.000135,53.2177,40.3935,96.3127,263.8019,5.6468e-05,6.11e-06,0.0,0 STARLINK-4547,1 53573U 22101AY  23045.00768107  .00000611  00000-0  56468-4 0  9993,2 53573  53.2177  40.3935 0001350  96.3127 263.8019 15.08831383 27414,6917.907,95.438,540.706,538.838,0.0
53573.0,STARLINK-4547,PAYLOAD,2023-02-14 09:43:21,15.088465,0.0001178,53.2191,38.609,86.6417,273.471,7.5342e-05,9.12e-06,0.0,0 STARLINK-4547,1 53573U 22101AY  23045.40511182  .00000912  00000-0  75342-4 0  9992,2 53573  53.2191  38.6090 0001178  86.6417 273.4710 15.08846500 27472,6917.861,95.437,540.54,538.911,0.0
53573.0,STARLINK-4547,PAYLOAD,2023-02-15 03:12:37,15.08835093,0.0001388,53.2191,35.3378,96.7276,263.3874,2.3592e-05,8.8e-07,0.0,0 STARLINK-4547,1 53573U 22101AY  23046.13376325  .00000088  00000-0  23592-4 0  9995,2 53573  53.2191  35.3378 0001388  96.7276 263.3874 15.08835093 27589,6917.895,95.438,540.721,538.8,0.0
53573.0,STARLINK-4547,PAYLOAD,2023-02-15 06:23:22,15.08850321,0.0001088,53.2201,34.7431,99.6916,260.42,0.00012964,1.777e-05,0.0,0 STARLINK-4547,1 53573U 22101AY  23046.26623133  .00001777  00000-0  12964-3 0  9997,2 53573  53.2201  34.7431 0001088  99.6916 260.4200 15.08850321 27609,6917.849,95.437,540.467,538.961,0.0
53573.0,STARLINK-4547,PAYLOAD,2023-02-15 22:17:14,15.08839904,0.0001103,53.2213,31.7731,97.1673,262.9445,0.00013246,1.821e-05,0.0,0 STARLINK-4547,1 53573U 22101AY  23046.92863591  .00001821  00000-0  13246-3 0  9998,2 53573  53.2213  31.7731 0001103  97.1673 262.9445 15.08839904 27706,6917.881,95.438,540.509,538.983,0.0
53573.0,STARLINK-4547,PAYLOAD,2023-02-16 07:49:31,15.08859987,0.0001144,53.2198,29.9856,85.7985,274.3138,0.00014943,2.092e-05,0.0,0 STARLINK-4547,1 53573U 22101AY  23047.32606112  .00002092  00000-0  14943-3 0  9993,2 53573  53.2198  29.9856 0001144  85.7985 274.3138 15.08859987 27764,6917.819,95.436,540.476,538.893,0.0
53573.0,STARLINK-4547,PAYLOAD,2023-02-16 15:46:29,15.08835563,0.0001475,53.2199,28.4983,75.2938,284.8217,4.1441e-05,3.72e-06,0.0,0 STARLINK-4547,1 53573U 22101AY  23047.65728102  .00000372  00000-0  41441-4 0  9996,2 53573  53.2199  28.4983 0001475  75.2938 284.8217 15.08835563 27813,6917.894,95.438,540.779,538.739,0.0
53573.0,STARLINK-4547,PAYLOAD,2023-02-17 02:54:12,15.08826134,0.0001232,53.2207,26.4208,84.5575,275.5558,-0.00014892,-2.656e-05,0.0,0 STARLINK-4547,1 53573U 22101AY  23048.12097604 -.00002656  00000-0 -14892-3 0  9993,2 53573  53.2207  26.4208 0001232  84.5575 275.5558 15.08826134 27888,6917.923,95.438,540.64,538.935,0.0
53573.0,STARLINK-4547,PAYLOAD,2023-02-17 07:40:20,15.08841771,0.0001254,53.2204,25.5284,79.8193,280.2941,-1.4883e-05,-5.25e-06,0.0,0 STARLINK-4547,1 53573U 22101AY  23048.31968315 -.00000525  00000-0 -14883-4 0  9994,2 53573  53.2204  25.5284 0001254  79.8193 280.2941 15.08841771 27913,6917.875,95.437,540.607,538.872,0.0
53573.0,STARLINK-4547,PAYLOAD,2023-02-17 15:37:17,15.08825851,0.0001593,53.2204,24.0422,74.9382,285.1787,-0.00013263,-2.397e-05,0.0,0 STARLINK-4547,1 53573U 22101AY  23048.65089953 -.00002397  00000-0 -13263-3 0  9992,2 53573  53.2204  24.0422 0001593  74.9382 285.1787 15.08825851 27961,6917.924,95.438,540.891,538.687,0.0
53573.0,STARLINK-4547,PAYLOAD,2023-02-18 04:20:23,15.08824149,0.0001343,53.2196,21.6628,70.7946,289.3191,-0.0001061,-1.975e-05,0.0,0 STARLINK-4547,1 53573U 22101AY  23049.18082334 -.00001975  00000-0 -10610-3 0  9991,2 53573  53.2196  21.6628 0001343  70.7946 289.3191 15.08824149 28049,6917.929,95.439,540.723,538.865,0.0
53573.0,STARLINK-4547,PAYLOAD,2023-02-18 15:28:03,15.08848418,0.0001461,53.2211,19.578,85.9426,274.1733,-5.1272e-05,-1.104e-05,0.0,0 STARLINK-4547,1 53573U 22101AY  23049.64448707 -.00001104  00000-0 -51272-4 0  9996,2 53573  53.2211  19.5780 0001461  85.9426 274.1733 15.08848418 28111,6917.855,95.437,540.73,538.709,0.0
53573.0,STARLINK-4547,PAYLOAD,2023-02-19 04:11:07,15.08854771,0.0001675,53.219,17.2005,74.0799,286.0378,0.00038309,5.817e-05,0.0,0 STARLINK-4547,1 53573U 22101AY  23050.17439069  .00005817  00000-0  38309-3 0  9995,2 53573  53.2190  17.2005 0001675  74.0799 286.0378 15.08854771 28195,6917.835,95.437,540.859,538.542,0.0
53573.0,STARLINK-4547,PAYLOAD,2023-02-19 07:21:53,15.08863248,0.0001488,53.2187,16.6054,79.6302,280.4858,0.00027317,4.065e-05,0.0,0 STARLINK-4547,1 53573U 22101AY  23050.30686763  .00004065  00000-0  27317-3 0  9996,2 53573  53.2187  16.6054 0001488  79.6302 280.4858 15.08863248 28214,6917.809,95.436,540.704,538.645,0.0
53573.0,STARLINK-4547,PAYLOAD,2023-02-20 04:01:55,15.08835553,0.0001218,53.2187,12.7403,75.9433,284.1695,0.0001365,1.885e-05,0.0,0 STARLINK-4547,1 53573U 22101AY  23051.16800813  .00001885  00000-0  13650-3 0  9997,2 53573  53.2187  12.7403 0001218  75.9433 284.1695 15.08835553 28346,6917.894,95.438,540.602,538.916,0.0
53573.0,STARLINK-4547,PAYLOAD,2023-02-20 07:12:41,15.08848274,0.0001265,53.2205,12.1455,73.5855,286.5276,3.87e-05,3.28e-06,0.0,0 STARLINK-4547,1 53573U 22101AY  23051.30048356  .00000328  00000-0  38700-4 0  9994,2 53573  53.2205  12.1455 0001265  73.5855 286.5276 15.08848274 28369,6917.855,95.437,540.595,538.845,0.0
53573.0,STARLINK-4547,PAYLOAD,2023-02-21 13:25:01,15.08845501,0.0001871,53.2208,6.4959,83.924,276.1966,-1.9148e-05,-5.93e-06,0.0,0 STARLINK-4547,1 53573U 22101AY  23052.55904199 -.00000593  00000-0 -19148-4 0  9999,2 53573  53.2208   6.4959 0001871  83.9240 276.1966 15.08845501 28555,6917.864,95.437,541.023,538.434,0.0
